{"type": "FeatureCollection", "features": [ {"type": "Feature", "properties": {"norad_id": 30811, "name": "FENGYUN 1C DEB", "group": "fengyun-1c-debris", "lat": -65.58161116527016, "lon": 177.2452495838185, "alt_km": 1242.5600868824913, "timestamp": "2025-12-02T19:35:50.834718+00:00", "meta": {"OBJECT_NAME": "FENGYUN 1C DEB", "OBJECT_ID": "1999-025AUV", "EPOCH": "2025-12-01T01:50:52.794816", "MEAN_MOTION": 13.61789274, "ECCENTRICITY": 0.02794995, "INCLINATION": 98.7833, "RA_OF_ASC_NODE": 15.5863, "ARG_OF_PERICENTER": 76.7211, "MEAN_ANOMALY": 286.4942, "EPHEMERIS_TYPE": 0, "CLASSIFICATION_TYPE": "U", "NORAD_CAT_ID": 30811, "ELEMENT_SET_NO": 999, "REV_AT_EPOCH": 92708, "BSTAR": 0.0018937976, "MEAN_MOTION_DOT": 1.852e-05, "MEAN_MOTION_DDOT": 0}, "tle": {"line1": "1 30811U 99025AUV 25335.07699994  .00001852  00000+0  18938-2 0  9995", "line2": "2 30811  98.7833  15.5863 0279499  76.7211 286.4942 13.61789274927084"}}, "geometry": {"type": "Point", "coordinates": [177.2452495838185, -65.58161116527016]}}, {"type": "Feature", "properties": {"norad_id": 30814, "name": "FENGYUN 1C DEB", "group": "fengyun-1c-debris", "lat": 28.222195534168076, "lon": -52.65193473675475, "alt_km": 703.9760550026149, "timestamp": "2025-12-02T19:35:50.834729+00:00", "meta": {"OBJECT_NAME": "FENGYUN 1C DEB", "OBJECT_ID": "1999-025AUY", "EPOCH": "2025-12-02T10:17:54.436128", "MEAN_MOTION": 14.5995701, "ECCENTRICITY": 0.0031009, "INCLINATION": 99.0811, "RA_OF_ASC_NODE": 311.8484, "ARG_OF_PERICENTER": 266.611, "MEAN_ANOMALY": 246.5519, "EPHEMERIS_TYPE": 0, "CLASSIFICATION_TYPE": "U", "NORAD_CAT_ID": 30814, "ELEMENT_SET_NO": 999, "REV_AT_EPOCH": 97591, "BSTAR": 0.0037433, "MEAN_MOTION_DOT": 0.00018056, "MEAN_MOTION_DDOT": 0}, "tle": {"line1": "1 30814U 99025AUY 25336.42910227  .00018056  00000+0  37433-2 0  9998", "line2": "2 30814  99.0811 311.8484 0031009 266.6110 246.5519 14.59957010975914"}}, "geometry": {"type": "Point", "coordinates": [-52.65193473675475, 28.222195534168076]}}, {"type": "Feature", "properties": {"norad_id": 30815, "name": "FENGYUN 1C DEB", "group": "fengyun-1c-debris", "lat": -49.283609315290185, "lon": 142.2659596883067, "alt_km": 658.1453510788415, "timestamp": "2025-12-02T19:35:50.834739+00:00", "meta": {"OBJECT_NAME": "FENGYUN 1C DEB", "OBJECT_ID": "1999-025AUZ", "EPOCH": "2025-11-30T09:15:26.568288", "MEAN_MOTION": 14.72583918, "ECCENTRICITY": 0.00021035, "INCLINATION": 99.3008, "RA_OF_ASC_NODE": 128.5096, "ARG_OF_PERICENTER": 274.3036, "MEAN_ANOMALY": 115.8666, "EPHEMERIS_TYPE": 0, "CLASSIFICATION_TYPE": "U", "NORAD_CAT_ID": 30815, "ELEMENT_SET_NO": 999, "REV_AT_EPOCH": 97598, "BSTAR": 0.0044563323, "MEAN_MOTION_DOT": 0.00028405, "MEAN_MOTION_DDOT": 0}, "tle": {"line1": "1 30815U 99025AUZ 25334.38572417  .00028405  00000+0  44563-2 0  9998", "line2": "2 30815  99.3008 128.5096 0002103 274.3036 115.8666 14.72583918975989"}}, "geometry": {"type": "Point", "coordinates": [142.2659596883067, -49.283609315290185]}}, {"type": "Feature", "properties": {"norad_id": 30816, "name": "FENGYUN 1C DEB", "group": "fengyun-1c-debris", "lat": 78.34076504149702, "lon": -83.21350473292544, "alt_km": 787.7971600532828, "timestamp": "2025-12-02T19:35:50.834750+00:00", "meta": {"OBJECT_NAME": "FENGYUN 1C DEB", "OBJECT_ID": "1999-025AVA", "EPOCH": "2025-12-02T04:11:41.222688", "MEAN_MOTION": 14.17897828, "ECCENTRICITY": 0.00532115, "INCLINATION": 98.9158, "RA_OF_ASC_NODE": 46.6125, "ARG_OF_PERICENTER": 85.758, "MEAN_ANOMALY": 337.5359, "EPHEMERIS_TYPE": 0, "CLASSIFICATION_TYPE": "U", "NORAD_CAT_ID": 30816, "ELEMENT_SET_NO": 999, "REV_AT_EPOCH": 96244, "BSTAR": 0.0018458712, "MEAN_MOTION_DOT": 3.783e-05, "MEAN_MOTION_DDOT": 0}, "tle": {"line1": "1 30816U 99025AVA 25336.17478267  .00003783  00000+0  18459-2 0  9993", "line2": "2 30816  98.9158  46.6125 0053211  85.7580 337.5359 14.17897828962444"}}, "geometry": {"type": "Point", "coordinates": [-83.21350473292544, 78.34076504149702]}}, {"type": "Feature", "properties": {"norad_id": 30817, "name": "FENGYUN 1C DEB", "group": "fengyun-1c-debris", "lat": 74.17430575374287, "lon": -65.65585016992067, "alt_km": 924.266266641448, "timestamp": "2025-12-02T19:35:50.834761+00:00", "meta": {"OBJECT_NAME": "FENGYUN 1C DEB", "OBJECT_ID": "1999-025AVB", "EPOCH": "2025-12-02T05:30:54.160128", "MEAN_MOTION": 14.0070687, "ECCENTRICITY": 0.0057376, "INCLINATION": 98.7859, "RA_OF_ASC_NODE": 326.8455, "ARG_OF_PERICENTER": 274.6945, "MEAN_ANOMALY": 84.7669, "EPHEMERIS_TYPE": 0, "CLASSIFICATION_TYPE": "U", "NORAD_CAT_ID": 30817, "ELEMENT_SET_NO": 999, "REV_AT_EPOCH": 95762, "BSTAR": 0.00035922, "MEAN_MOTION_DOT": 5e-06, "MEAN_MOTION_DDOT": 0}, "tle": {"line1": "1 30817U 99025AVB 25336.22979352  .00000500  00000+0  35922-3 0  9990", "line2": "2 30817  98.7859 326.8455 0057376 274.6945  84.7669 14.00706870957627"}}, "geometry": {"type": "Point", "coordinates": [-65.65585016992067, 74.17430575374287]}}, {"type": "Feature", "properties": {"norad_id": 30820, "name": "FENGYUN 1C DEB", "group": "fengyun-1c-debris", "lat": -71.76873058248049, "lon": 100.90631275310824, "alt_km": 816.1557136146648, "timestamp": "2025-12-02T19:35:50.834771+00:00", "meta": {"OBJECT_NAME": "FENGYUN 1C DEB", "OBJECT_ID": "1999-025AVE", "EPOCH": "2025-12-01T05:13:35.130144", "MEAN_MOTION": 14.21242439, "ECCENTRICITY": 0.0051773, "INCLINATION": 98.6766, "RA_OF_ASC_NODE": 71.7167, "ARG_OF_PERICENTER": 219.591, "MEAN_ANOMALY": 170.3692, "EPHEMERIS_TYPE": 0, "CLASSIFICATION_TYPE": "U", "NORAD_CAT_ID": 30820, "ELEMENT_SET_NO": 999, "REV_AT_EPOCH": 96260, "BSTAR": 0.002337, "MEAN_MOTION_DOT": 5.118e-05, "MEAN_MOTION_DDOT": 0}, "tle": {"line1": "1 30820U 99025AVE 25335.21776771  .00005118  00000+0  23370-2 0  9995", "line2": "2 30820  98.6766  71.7167 0051773 219.5910 170.3692 14.21242439962609"}}, "geometry": {"type": "Point", "coordinates": [100.90631275310824, -71.76873058248049]}}, {"type": "Feature", "properties": {"norad_id": 30821, "name": "FENGYUN 1C DEB", "group": "fengyun-1c-debris", "lat": 46.42951319292329, "lon": 108.90174782255197, "alt_km": 783.7127261540745, "timestamp": "2025-12-02T19:35:50.834781+00:00", "meta": {"OBJECT_NAME": "FENGYUN 1C DEB", "OBJECT_ID": "1999-025AVF", "EPOCH": "2025-12-01T08:43:29.259840", "MEAN_MOTION": 14.49523426, "ECCENTRICITY": 0.00862987, "INCLINATION": 99.1021, "RA_OF_ASC_NODE": 117.0363, "ARG_OF_PERICENTER": 240.0336, "MEAN_ANOMALY": 149.0962, "EPHEMERIS_TYPE": 0, "CLASSIFICATION_TYPE": "U", "NORAD_CAT_ID": 30821, "ELEMENT_SET_NO": 999, "REV_AT_EPOCH": 98624, "BSTAR": 0.0010654422, "MEAN_MOTION_DOT": 4.23e-05, "MEAN_MOTION_DDOT": 0}, "tle": {"line1": "1 30821U 99025AVF 25335.36353310  .00004230  00000+0  10654-2 0  9997", "line2": "2 30821  99.1021 117.0363 0086298 240.0336 149.0962 14.49523426986240"}}, "geometry": {"type": "Point", "coordinates": [108.90174782255197, 46.42951319292329]}}, {"type": "Feature", "properties": {"norad_id": 30822, "name": "FENGYUN 1C DEB", "group": "fengyun-1c-debris", "lat": -65.37525872345938, "lon": 165.54443280745693, "alt_km": 841.0241333179274, "timestamp": "2025-12-02T19:35:50.834791+00:00", "meta": {"OBJECT_NAME": "FENGYUN 1C DEB", "OBJECT_ID": "1999-025AVG", "EPOCH": "2025-12-02T08:19:08.482944", "MEAN_MOTION": 14.11320405, "ECCENTRICITY": 0.0073296, "INCLINATION": 98.7367, "RA_OF_ASC_NODE": 4.6894, "ARG_OF_PERICENTER": 315.198, "MEAN_ANOMALY": 66.1225, "EPHEMERIS_TYPE": 0, "CLASSIFICATION_TYPE": "U", "NORAD_CAT_ID": 30822, "ELEMENT_SET_NO": 999, "REV_AT_EPOCH": 96555, "BSTAR": 0.00043357, "MEAN_MOTION_DOT": 7.6e-06, "MEAN_MOTION_DDOT": 0}, "tle": {"line1": "1 30822U 99025AVG 25336.34662596  .00000760  00000+0  43357-3 0  9997", "line2": "2 30822  98.7367   4.6894 0073296 315.1980  66.1225 14.11320405965555"}}, "geometry": {"type": "Point", "coordinates": [165.54443280745693, -65.37525872345938]}}, {"type": "Feature", "properties": {"norad_id": 30823, "name": "FENGYUN 1C DEB", "group": "fengyun-1c-debris", "lat": -62.146876538314125, "lon": 135.16453258445864, "alt_km": 988.7163158702733, "timestamp": "2025-12-02T19:35:50.834802+00:00", "meta": {"OBJECT_NAME": "FENGYUN 1C DEB", "OBJECT_ID": "1999-025AVH", "EPOCH": "2025-12-02T08:14:22.099776", "MEAN_MOTION": 14.02529207, "ECCENTRICITY": 0.0133279, "INCLINATION": 98.7601, "RA_OF_ASC_NODE": 117.7439, "ARG_OF_PERICENTER": 113.5287, "MEAN_ANOMALY": 315.0259, "EPHEMERIS_TYPE": 0, "CLASSIFICATION_TYPE": "U", "NORAD_CAT_ID": 30823, "ELEMENT_SET_NO": 999, "REV_AT_EPOCH": 95888, "BSTAR": 0.00073987, "MEAN_MOTION_DOT": 1.191e-05, "MEAN_MOTION_DDOT": 0}, "tle": {"line1": "1 30823U 99025AVH 25336.34331134  .00001191  00000+0  73987-3 0  9990", "line2": "2 30823  98.7601 117.7439 0133279 113.5287 315.0259 14.02529207958888"}}, "geometry": {"type": "Point", "coordinates": [135.16453258445864, -62.146876538314125]}}, {"type": "Feature", "properties": {"norad_id": 30826, "name": "FENGYUN 1C DEB", "group": "fengyun-1c-debris", "lat": 75.69642096334263, "lon": 28.51467982717174, "alt_km": 584.2900678455289, "timestamp": "2025-12-02T19:35:50.834813+00:00", "meta": {"OBJECT_NAME": "FENGYUN 1C DEB", "OBJECT_ID": "1999-025AVL", "EPOCH": "2025-12-02T08:21:58.176864", "MEAN_MOTION": 14.82081725, "ECCENTRICITY": 0.0146207, "INCLINATION": 98.8676, "RA_OF_ASC_NODE": 170.2383, "ARG_OF_PERICENTER": 29.6993, "MEAN_ANOMALY": 94.571, "EPHEMERIS_TYPE": 0, "CLASSIFICATION_TYPE": "U", "NORAD_CAT_ID": 30826, "ELEMENT_SET_NO": 999, "REV_AT_EPOCH": 132, "BSTAR": 0.00052612, "MEAN_MOTION_DOT": 4.966e-05, "MEAN_MOTION_DDOT": 0}, "tle": {"line1": "1 30826U 99025AVL 25336.34859001  .00004966  00000+0  52612-3 0  9996", "line2": "2 30826  98.8676 170.2383 0146207  29.6993  94.5710 14.82081725  1327"}}, "geometry": {"type": "Point", "coordinates": [28.51467982717174, 75.69642096334263]}}]}